[{"OBJECT_NAME":"TRANSPORTER-12 OBJECT AZ","OBJECT_ID":"2025-009AZ","EPOCH":"2026-03-09T17:02:46.667040","MEAN_MOTION":15.30349724,"ECCENTRICITY":9.87e-5,"INCLINATION":97.3981,"RA_OF_ASC_NODE":151.9913,"ARG_OF_PERICENTER":45.3581,"MEAN_ANOMALY":314.774,"EPHEMERIS_TYPE":0,"CLASSIFICATION_TYPE":"U","NORAD_CAT_ID":62656,"ELEMENT_SET_NO":999,"REV_AT_EPOCH":6379,"BSTAR":0.00054902545,"MEAN_MOTION_DOT":0.00016057,"MEAN_MOTION_DDOT":0},{"OBJECT_NAME":"STARLINK-35107","OBJECT_ID":"2025-195G","EPOCH":"2026-03-09T17:20:09.242016","MEAN_MOTION":15.30212768,"ECCENTRICITY":8.924e-5,"INCLINATION":53.1598,"RA_OF_ASC_NODE":257.68,"ARG_OF_PERICENTER":152.0857,"MEAN_ANOMALY":208.0192,"EPHEMERIS_TYPE":0,"CLASSIFICATION_TYPE":"U","NORAD_CAT_ID":65464,"ELEMENT_SET_NO":999,"REV_AT_EPOCH":3000,"BSTAR":0.0011506121,"MEAN_MOTION_DOT":0.00033888,"MEAN_MOTION_DDOT":0}]
